H1 CPF  1  DLR 2021 12 01 10  8352 technosat            
H2  1704205 6203    42829 2021 12 01 00 00 00 2021 12 08 00 00 00    60 1 1  0 0 0
H9
10 0 59555  36000.000000  0       4407806.476      -1288478.638      -5243697.304
10 0 59555  36060.000000  0       4688000.425      -1485662.485      -4939816.689
10 0 59555  36120.000000  0       4946759.523      -1678952.739      -4614999.015
10 0 59555  36180.000000  0       5183025.149      -1867341.045      -4270613.289
10 0 59555  36240.000000  0       5395841.544      -2049830.321      -3908112.801
10 0 59555  36300.000000  0       5584359.996      -2225439.970      -3529029.108
10 0 59555  36360.000000  0       5747842.554      -2393211.089      -3134965.614
10 0 59555  36420.000000  0       5885665.204      -2552211.625      -2727590.788
10 0 59555  36480.000000  0       5997320.520      -2701541.468      -2308631.043
10 0 59555  36540.000000  0       6082419.725      -2840337.398      -1879863.322
10 0 59555  36600.000000  0       6140694.224      -2967777.909      -1443107.464
10 0 59555  36660.000000  0       6171996.589      -3083087.879      -1000218.308
10 0 59555  36720.000000  0       6176300.911      -3185543.042       -553077.571
10 0 59555  36780.000000  0       6153702.534      -3274474.212       -103585.616
10 0 59555  36840.000000  0       6104417.230      -3349271.251        346346.853
10 0 59555  36900.000000  0       6028779.834      -3409386.806        794807.187
10 0 59555  36960.000000  0       5927242.268      -3454339.715       1239889.286
10 0 59555  37020.000000  0       5800370.872      -3483718.035       1679702.072
10 0 59555  37080.000000  0       5648843.149      -3497181.702       2112377.739
10 0 59555  37140.000000  0       5473444.084      -3494464.882       2536079.835
10 0 59555  37200.000000  0       5275061.995      -3475377.969       2949011.286
10 0 59555  37260.000000  0       5054683.807      -3439809.102       3349422.214
10 0 59555  37320.000000  0       4813389.917      -3387725.293       3735617.360
10 0 59555  37380.000000  0       4552348.748      -3319173.226       4105963.277
10 0 59555  37440.000000  0       4272810.914      -3234279.692       4458895.299
10 0 59555  37500.000000  0       3976102.924      -3133251.603       4792924.178
10 0 59555  37560.000000  0       3663620.568      -3016375.551       5106642.245
10 0 59555  37620.000000  0       3336822.136      -2884016.982       5398729.146
10 0 59555  37680.000000  0       2997221.437      -2736618.982       5667957.209
10 0 59555  37740.000000  0       2646380.628      -2574700.726       5913196.378
10 0 59555  37800.000000  0       2285902.869      -2398855.575       6133418.715
10 0 59555  37860.000000  0       1917424.899      -2209748.796       6327702.416
10 0 59555  37920.000000  0       1542609.566      -2008114.990       6495235.406
10 0 59555  37980.000000  0       1163138.258      -1794755.147       6635318.490
10 0 59555  38040.000000  0        780703.363      -1570533.392       6747367.967
10 0 59555  38100.000000  0        397000.786      -1336373.459       6830917.828
10 0 59555  38160.000000  0         13722.488      -1093254.849       6885621.499
10 0 59555  38220.000000  0       -367450.879       -842208.723       6911253.061
10 0 59555  38280.000000  0       -744857.195       -584313.595       6907708.066
10 0 59555  38340.000000  0      -1116860.030       -320690.730       6875003.922
10 0 59555  38400.000000  0      -1481855.632        -52499.315       6813279.757
10 0 59555  38460.000000  0      -1838279.716        219068.561       6722795.851
10 0 59555  38520.000000  0      -2184614.082        492793.137       6603932.625
10 0 59555  38580.000000  0      -2519393.028        767432.369       6457189.140
10 0 59555  38640.000000  0      -2841209.499       1041727.475       6283181.158
10 0 59555  38700.000000  0      -3148720.979       1314408.614       6082638.773
10 0 59555  38760.000000  0      -3440655.146       1584200.694       5856403.581
10 0 59555  38820.000000  0      -3715815.218       1849829.262       5605425.402
10 0 59555  38880.000000  0      -3973084.969       2110026.504       5330758.546
10 0 59555  38940.000000  0      -4211433.409       2363537.305       5033557.619
10 0 59555  39000.000000  0      -4429919.085       2609125.284       4715072.880
10 0 59555  39060.000000  0      -4627693.977       2845578.807       4376645.125
10 0 59555  39120.000000  0      -4804006.927       3071716.942       4019700.228
10 0 59555  39180.000000  0      -4958206.690       3286395.384       3645743.312
10 0 59555  39240.000000  0      -5089744.521       3488512.269       3256352.516
10 0 59555  39300.000000  0      -5198176.264       3677013.847       2853172.443
10 0 59555  39360.000000  0      -5283164.025       3850900.022       2437907.276
10 0 59555  39420.000000  0      -5344477.308       4009229.663       2012313.521
10 0 59555  39480.000000  0      -5381993.652       4151125.679       1578192.530
10 0 59555  39540.000000  0      -5395698.757       4275779.863       1137382.723
10 0 59555  39600.000000  0      -5385685.953       4382457.298        691751.605
10 0 59555  39660.000000  0      -5352155.265       4470500.487        243187.815
10 0 59555  39720.000000  0      -5295412.014       4539333.218       -206407.099
10 0 59555  39780.000000  0      -5215864.839       4588463.961       -655126.976
10 0 59555  39840.000000  0      -5114023.238       4617488.935      -1101069.355
10 0 59555  39900.000000  0      -4990494.559       4626094.725      -1542343.845
10 0 59555  39960.000000  0      -4845980.515       4614060.381      -1977080.357
10 0 59555  40020.000000  0      -4681273.297       4581259.059      -2403437.231
10 0 59555  40080.000000  0      -4497251.234       4527659.222      -2819609.203
10 0 59555  40140.000000  0      -4294874.067       4453325.396      -3223835.185
10 0 59555  40200.000000  0      -4075177.828       4358418.389      -3614405.806
10 0 59555  40260.000000  0      -3839269.456       4243195.088      -3989670.608
10 0 59555  40320.000000  0      -3588321.108       4108007.831      -4348045.026
10 0 59555  40380.000000  0      -3323564.171       3953303.227      -4688016.987
10 0 59555  40440.000000  0      -3046283.185       3779620.614      -5008153.089
10 0 59555  40500.000000  0      -2757809.582       3587590.128      -5307104.535
10 0 59555  40560.000000  0      -2459515.222       3377930.325      -5583612.695
10 0 59555  40620.000000  0      -2152805.783       3151445.367      -5836514.246
10 0 59555  40680.000000  0      -1839114.070       2909021.789      -6064745.876
10 0 59555  40740.000000  0      -1519893.274       2651624.883      -6267348.522
10 0 59555  40800.000000  0      -1196610.233       2380294.728      -6443471.118
10 0 59555  40860.000000  0       -870738.749       2096141.973      -6592373.908
10 0 59555  40920.000000  0       -543752.908       1800343.277      -6713431.400
10 0 59555  40980.000000  0       -217120.459       1494136.357      -6806134.757
10 0 59555  41040.000000  0        107703.604       1178814.866      -6870093.754
10 0 59555  41100.000000  0        429283.428        855723.020      -6905038.405
10 0 59555  41160.000000  0        746208.645        526249.925      -6910820.104
10 0 59555  41220.000000  0       1057100.535        191823.628      -6887412.214
10 0 59555  41280.000000  0       1360617.949       -146095.021      -6834910.128
10 0 59555  41340.000000  0       1655463.017       -486018.644      -6753530.897
10 0 59555  41400.000000  0       1940386.604       -826439.753      -6643612.472
10 0 59555  41460.000000  0       2214193.622      -1165837.371      -6505612.513
10 0 59555  41520.000000  0       2475748.085      -1502683.760      -6340106.604
10 0 59555  41580.000000  0       2723977.808      -1835451.164      -6147786.057
10 0 59555  41640.000000  0       2957878.855      -2162618.676      -5929455.390
10 0 59555  41700.000000  0       3176519.762      -2482679.246      -5686029.316
10 0 59555  41760.000000  0       3379045.443      -2794146.756      -5418529.158
10 0 59555  41820.000000  0       3564680.686      -3095563.024      -5128078.709
10 0 59555  41880.000000  0       3732733.205      -3385504.692      -4815899.670
10 0 59555  41940.000000  0       3882596.326      -3662590.013      -4483306.723
10 0 59555  42000.000000  0       4013751.310      -3925485.523      -4131702.227
10 0 59555  42060.000000  0       4125769.299      -4172912.627      -3762570.503
10 0 59555  42120.000000  0       4218312.849      -4403654.003      -3377471.682
10 0 59555  42180.000000  0       4291137.026      -4616559.757      -2978035.161
10 0 59555  42240.000000  0       4344090.074      -4810553.328      -2565952.726
10 0 59555  42300.000000  0       4377113.596      -4984637.142      -2142971.320
10 0 59555  42360.000000  0       4390242.211      -5137897.915      -1710885.495
10 0 59555  42420.000000  0       4383602.792      -5269511.492      -1271529.643
10 0 59555  42480.000000  0       4357413.283      -5378747.346       -826770.002
10 0 59555  42540.000000  0       4311980.999      -5464972.614       -378496.464
10 0 59555  42600.000000  0       4247700.482      -5527655.657         71385.702
10 0 59555  42660.000000  0       4165050.952      -5566369.184        520964.188
10 0 59555  42720.000000  0       4064593.343      -5580792.848        968328.108
10 0 59555  42780.000000  0       3946966.932      -5570715.265       1411576.454
10 0 59555  42840.000000  0       3812885.534      -5536035.461       1848826.482
10 0 59555  42900.000000  0       3663133.330      -5476763.799       2278221.889
10 0 59555  42960.000000  0       3498560.418      -5393022.422       2697940.862
10 0 59555  43020.000000  0       3320078.093      -5285045.152       3106204.008
10 0 59555  43080.000000  0       3128653.815      -5153176.763       3501282.047
10 0 59555  43140.000000  0       2925305.971      -4997871.730       3881503.171
99
